ONEWEB-0216             
1 48801U 21045AL  24106.90091367 -.00000023  00000+0 -93821-4 0  9994
2 48801  87.9020  56.8769 0001701  73.1205 287.0112 13.15549589140137
ONEWEB-0239             
1 48802U 21045AM  24106.90566705  .00000066  00000+0  14088-3 0  9990
2 48802  87.9032  56.8461 0001745 114.5310 245.6002 13.15547515141311
ONEWEB-0249             
1 48967U 21060A   24106.85979700  .00000157  00000+0  37604-3 0  9996
2 48967  87.9152  26.4739 0001886  83.0942 277.0403 13.16594529135353
ONEWEB-0250             
1 48968U 21060B   24107.16852715 -.00000104  00000+0 -30671-3 0  9999
2 48968  87.9153  26.3965 0001735  88.0117 272.1212 13.16590843136661
ONEWEB-0252             
1 48970U 21060D   24107.19543680 -.00000212  00000+0 -58807-3 0  9994
2 48970  87.9152  26.4005 0001718  75.0085 285.1236 13.16594779136730
ONEWEB-0253             
1 48971U 21060E   24107.18435902  .00000039  00000+0  68160-4 0  9990
2 48971  87.9148  26.4155 0001561  82.7916 277.3392 13.16593309136651
ONEWEB-0254             
1 48972U 21060F   24107.19386323  .00000082  00000+0  18144-3 0  9998
2 48972  87.9152  26.3909 0001531  84.2089 275.9217 13.16593173136657
ONEWEB-0255             
1 48973U 21060G   24106.69987827  .00000075  00000+0  16174-3 0  9992
2 48973  87.9151  26.5237 0001843  81.9708 278.1632 13.16592807135389
